OBJECT_NAME,OBJECT_ID,EPOCH,MEAN_MOTION,ECCENTRICITY,INCLINATION,RA_OF_ASC_NODE,ARG_OF_PERICENTER,MEAN_ANOMALY,EPHEMERIS_TYPE,CLASSIFICATION_TYPE,NORAD_CAT_ID,ELEMENT_SET_NO,REV_AT_EPOCH,BSTAR,MEAN_MOTION_DOT,MEAN_MOTION_DDOT
SUOMI NPP,2011-061A,2026-06-04T05:31:22.704096,14.19514600,.00022086,98.7951,96.1950,34.5354,325.5965,0,U,37849,999,75660,.71061201E-4,.105E-5,0
YAOGAN-12,2011-066B,2026-06-04T06:52:51.013056,15.26427913,.00079663,97.1146,194.4623,272.0350,87.9977,0,U,37875,999,81007,.2096643E-3,.5396E-4,0
BEIDOU-2 M4,2012-018B,2026-06-01T00:17:34.485216,1.86229761,.00110626,55.6723,304.6348,278.2217,81.6260,0,U,38251,999,9564,0,-.79E-6,0
ARIRANG-3 (KOMPSAT-3),2012-025B,2026-06-04T05:40:02.310240,14.62194507,.00060409,98.1171,112.9203,143.0525,217.1094,0,U,38338,999,74945,.11967984E-3,.556E-5,0
METOP-B,2012-049A,2026-06-04T07:23:31.009920,14.21429180,.00029365,98.6509,207.0636,48.7465,311.3965,0,U,38771,999,71143,.84006336E-4,.14E-5,0
SJ-9A,2012-056A,2026-06-04T05:32:59.809920,14.85447394,.00242101,97.6702,127.6523,302.1432,57.7435,0,U,38860,999,69766,.16127403E-3,.1344E-4,0
COSMOS 2484 (RODNIK-S 6),2013-001C,2026-06-04T06:24:37.903968,12.42938601,.00273037,82.5026,229.9243,64.0585,296.3303,0,U,39059,999,60695,.11261213E-3,.26E-6,0
SARAL,2013-009A,2026-06-04T06:17:06.756000,14.32852755,.00014439,98.5557,341.9931,4.3826,355.7370,0,U,39086,999,69375,.48584097E-4,.89E-6,0
STRAND-1,2013-009E,2026-06-04T00:52:51.152160,14.37155097,.00073872,98.3918,335.5952,270.6143,89.4198,0,U,39090,999,69517,.11291857E-3,.293E-5,0
BRITE-AUSTRIA,2013-009F,2026-06-04T01:03:13.912128,14.36536752,.00089685,98.3993,334.8055,280.8846,79.1332,0,U,39091,999,69516,.88188305E-4,.216E-5,0
GAOFEN-1,2013-018A,2026-06-04T07:44:43.510848,14.76522099,.00161064,97.9094,227.6513,311.4739,48.5088,0,U,39150,999,70634,.16549269E-4,.64E-6,0
NEE-01 PEGASO,2013-018B,2026-06-03T11:09:53.669664,14.93586684,.00121772,98.1207,298.1637,203.9081,156.1574,0,U,39151,999,70865,.30779545E-3,.319E-4,0
PROBA-V,2013-021A,2026-06-03T13:18:01.331712,14.23593894,.00044864,98.3577,133.8344,157.0674,203.0707,0,U,39159,999,67917,.50464514E-4,.74E-6,0
ARIRANG-5 (KOMPSAT-5),2013-042A,2026-06-04T07:55:05.239200,15.04540844,.00037445,97.6199,342.2100,157.9462,202.1926,0,U,39227,999,70192,.16243797E-3,.2216E-4,0
GONETS-M 5,2013-048A,2026-06-04T07:34:55.108704,12.42891546,.0015688,82.4828,351.4086,240.1720,119.7800,0,U,39249,999,57728,.14142162E-3,.29E-6,0
GONETS-M 7,2013-048C,2026-06-04T06:41:54.971808,12.42914466,.00164722,82.4897,354.3471,241.6452,118.2967,0,U,39251,999,57723,.25992385E-3,.46E-6,0
FENGYUN 3C,2013-052A,2026-06-04T06:02:43.854144,14.15751976,.00157786,98.4980,129.7213,62.6755,297.6024,0,U,39260,999,65673,.82044495E-4,.12E-5,0
CASSIOPE,2013-055A,2026-06-04T02:26:06.104256,15.24017002,.02970238,80.9147,82.5959,106.2984,257.1134,0,U,39265,999,66567,.47326249E-3,.42676E-3,-.55731E-6
APRIZESAT 7,2013-066A,2026-06-03T11:14:31.928640,14.91532678,.00342772,97.7702,107.8862,256.3956,103.3444,0,U,39416,999,67918,.14142157E-3,.1374E-4,0
ZACUBE-1 (TSHEPISOSAT),2013-066B,2026-06-03T22:37:15.794688,15.01095965,.00399036,97.8107,117.2078,294.5657,65.1411,0,U,39417,999,67874,.35148087E-3,.451E-4,0
APRIZESAT 8,2013-066K,2026-06-04T02:13:28.245792,14.87624717,.0045204,97.8216,102.7439,330.7670,29.1018,0,U,39425,999,67772,.14319275E-3,.1269E-4,0
